{
  "type": "FeatureCollection",
  "features": [
    {
      "type": "Feature",
      "properties": {
        "norad_id": 33376,
        "name": "GALAXY 19 (G-19)",
        "group": "intelsat",
        "lat": -0.022783210176542553,
        "lon": -98.65097143355922,
        "alt_km": 35771.853468839465,
        "timestamp": "2025-12-06T18:50:09.838332+00:00",
        "meta_object_name": "GALAXY 19 (G-19)",
        "meta_object_id": "2008-045A",
        "meta_epoch": "2025-12-06T05:46:26.930208",
        "meta_mean_motion": 1.00270679,
        "meta_eccentricity": 0.00034509,
        "meta_inclination": 0.0216,
        "meta_ra_of_asc_node": 59.88,
        "meta_arg_of_pericenter": 206.6204,
        "meta_mean_anomaly": 158.3997,
        "meta_ephemeris_type": 0,
        "meta_classification_type": "U",
        "meta_norad_cat_id": 33376,
        "meta_element_set_no": 999,
        "meta_rev_at_epoch": 6296,
        "meta_bstar": 0,
        "meta_mean_motion_dot": -1.31e-06,
        "meta_mean_motion_ddot": 0,
        "tle_line1": "1 33376U 08045A   25340.24058947 -.00000131  00000+0  00000+0 0  9996",
        "tle_line2": "2 33376   0.0216  59.8800 0003450 206.6204 158.3997  1.00270679 62962"
      },
      "geometry": {
        "type": "Point",
        "coordinates": [
          -98.65097143355922,
          -0.022783210176542553
        ]
      }
    },
    {
      "type": "Feature",
      "properties": {
        "norad_id": 35493,
        "name": "FM-5",
        "group": "intelsat",
        "lat": -0.021238287031028136,
        "lon": -87.79205555190983,
        "alt_km": 35785.929083022085,
        "timestamp": "2025-12-06T18:50:09.838344+00:00",
        "meta_object_name": "FM-5",
        "meta_object_id": "2009-034A",
        "meta_epoch": "2025-12-06T06:24:23.792256",
        "meta_mean_motion": 1.00271623,
        "meta_eccentricity": 5.831e-05,
        "meta_inclination": 0.0173,
        "meta_ra_of_asc_node": 291.4821,
        "meta_arg_of_pericenter": 256.0446,
        "meta_mean_anomaly": 257.7334,
        "meta_ephemeris_type": 0,
        "meta_classification_type": "U",
        "meta_norad_cat_id": 35493,
        "meta_element_set_no": 999,
        "meta_rev_at_epoch": 4471,
        "meta_bstar": 0,
        "meta_mean_motion_dot": -1.92e-06,
        "meta_mean_motion_ddot": 0,
        "tle_line1": "1 35493U 09034A   25340.26694204 -.00000192  00000+0  00000+0 0  9998",
        "tle_line2": "2 35493   0.0173 291.4821 0000583 256.0446 257.7334  1.00271623 44716"
      },
      "geometry": {
        "type": "Point",
        "coordinates": [
          -87.79205555190983,
          -0.021238287031028136
        ]
      }
    },
    {
      "type": "Feature",
      "properties": {
        "norad_id": 36097,
        "name": "INTELSAT 14 (IS-14)",
        "group": "intelsat",
        "lat": -0.01312532330897549,
        "lon": -46.614189091179156,
        "alt_km": 35779.59961429963,
        "timestamp": "2025-12-06T18:50:09.838356+00:00",
        "meta_object_name": "INTELSAT 14 (IS-14)",
        "meta_object_id": "2009-064A",
        "meta_epoch": "2025-12-06T06:36:07.668864",
        "meta_mean_motion": 1.00271248,
        "meta_eccentricity": 0.00027342,
        "meta_inclination": 0.0101,
        "meta_ra_of_asc_node": 335.0367,
        "meta_arg_of_pericenter": 283.6166,
        "meta_mean_anomaly": 230.7072,
        "meta_ephemeris_type": 0,
        "meta_classification_type": "U",
        "meta_norad_cat_id": 36097,
        "meta_element_set_no": 999,
        "meta_rev_at_epoch": 5867,
        "meta_bstar": 0,
        "meta_mean_motion_dot": -2.65e-06,
        "meta_mean_motion_ddot": 0,
        "tle_line1": "1 36097U 09064A   25340.27508876 -.00000265  00000+0  00000+0 0  9993",
        "tle_line2": "2 36097   0.0101 335.0367 0002734 283.6166 230.7072  1.00271248 58676"
      },
      "geometry": {
        "type": "Point",
        "coordinates": [
          -46.614189091179156,
          -0.01312532330897549
        ]
      }
    },
    {
      "type": "Feature",
      "properties": {
        "norad_id": 36106,
        "name": "INTELSAT 15 (IS-15)",
        "group": "intelsat",
        "lat": 0.03755908691105568,
        "lon": 83.50315897987991,
        "alt_km": 35797.06239167759,
        "timestamp": "2025-12-06T18:50:09.838367+00:00",
        "meta_object_name": "INTELSAT 15 (IS-15)",
        "meta_object_id": "2009-067A",
        "meta_epoch": "2025-12-06T03:24:38.406816",
        "meta_mean_motion": 1.00270429,
        "meta_eccentricity": 0.00025042,
        "meta_inclination": 0.0155,
        "meta_ra_of_asc_node": 329.9506,
        "meta_arg_of_pericenter": 288.2668,
        "meta_mean_anomaly": 313.2879,
        "meta_ephemeris_type": 0,
        "meta_classification_type": "U",
        "meta_norad_cat_id": 36106,
        "meta_element_set_no": 999,
        "meta_rev_at_epoch": 3929,
        "meta_bstar": 0,
        "meta_mean_motion_dot": -1.77e-06,
        "meta_mean_motion_ddot": 0,
        "tle_line1": "1 36106U 09067A   25340.14211119 -.00000177  00000+0  00000+0 0  9996",
        "tle_line2": "2 36106   0.0155 329.9506 0002504 288.2668 313.2879  1.00270429 39295"
      },
      "geometry": {
        "type": "Point",
        "coordinates": [
          83.50315897987991,
          0.03755908691105568
        ]
      }
    },
    {
      "type": "Feature",
      "properties": {
        "norad_id": 36131,
        "name": "DIRECTV 12",
        "group": "intelsat",
        "lat": -0.002112400144518841,
        "lon": -104.39132589752256,
        "alt_km": 35786.76472592146,
        "timestamp": "2025-12-06T18:50:09.838379+00:00",
        "meta_object_name": "DIRECTV 12",
        "meta_object_id": "2009-075A",
        "meta_epoch": "2025-12-06T00:16:38.669952",
        "meta_mean_motion": 1.00268752,
        "meta_eccentricity": 1.842e-05,
        "meta_inclination": 0.0514,
        "meta_ra_of_asc_node": 135.8141,
        "meta_arg_of_pericenter": 196.6474,
        "meta_mean_anomaly": 4.0261,
        "meta_ephemeris_type": 0,
        "meta_classification_type": "U",
        "meta_norad_cat_id": 36131,
        "meta_element_set_no": 999,
        "meta_rev_at_epoch": 4461,
        "meta_bstar": 0,
        "meta_mean_motion_dot": -9.4e-07,
        "meta_mean_motion_ddot": 0,
        "tle_line1": "1 36131U 09075A   25340.01155868 -.00000094  00000+0  00000+0 0  9995",
        "tle_line2": "2 36131   0.0514 135.8141 0000184 196.6474   4.0261  1.00268752 44618"
      },
      "geometry": {
        "type": "Point",
        "coordinates": [
          -104.39132589752256,
          -0.002112400144518841
        ]
      }
    },
    {
      "type": "Feature",
      "properties": {
        "norad_id": 36397,
        "name": "INTELSAT 16 (IS-16)",
        "group": "intelsat",
        "lat": -0.023788027985916484,
        "lon": -77.83593816149614,
        "alt_km": 35777.04715551223,
        "timestamp": "2025-12-06T18:50:09.838391+00:00",
        "meta_object_name": "INTELSAT 16 (IS-16)",
        "meta_object_id": "2010-006A",
        "meta_epoch": "2025-12-06T06:27:16.016832",
        "meta_mean_motion": 1.00271271,
        "meta_eccentricity": 0.00023828,
        "meta_inclination": 0.01,
        "meta_ra_of_asc_node": 319.9056,
        "meta_arg_of_pericenter": 298.3679,
        "meta_mean_anomaly": 197.6585,
        "meta_ephemeris_type": 0,
        "meta_classification_type": "U",
        "meta_norad_cat_id": 36397,
        "meta_element_set_no": 999,
        "meta_rev_at_epoch": 5772,
        "meta_bstar": 0,
        "meta_mean_motion_dot": -2.37e-06,
        "meta_mean_motion_ddot": 0,
        "tle_line1": "1 36397U 10006A   25340.26893538 -.00000237  00000+0  00000+0 0  9994",
        "tle_line2": "2 36397   0.0100 319.9056 0002382 298.3679 197.6585  1.00271271 57726"
      },
      "geometry": {
        "type": "Point",
        "coordinates": [
          -77.83593816149614,
          -0.023788027985916484
        ]
      }
    },
    {
      "type": "Feature",
      "properties": {
        "norad_id": 37185,
        "name": "XM-5",
        "group": "intelsat",
        "lat": -0.05136087759982879,
        "lon": -116.79591457719135,
        "alt_km": 35784.63678526944,
        "timestamp": "2025-12-06T18:50:09.838402+00:00",
        "meta_object_name": "XM-5",
        "meta_object_id": "2010-053A",
        "meta_epoch": "2025-12-06T00:52:13.899072",
        "meta_mean_motion": 1.00278634,
        "meta_eccentricity": 0.000179,
        "meta_inclination": 0.0624,
        "meta_ra_of_asc_node": 273.2338,
        "meta_arg_of_pericenter": 236.3382,
        "meta_mean_anomaly": 183.3829,
        "meta_ephemeris_type": 0,
        "meta_classification_type": "U",
        "meta_norad_cat_id": 37185,
        "meta_element_set_no": 999,
        "meta_rev_at_epoch": 5554,
        "meta_bstar": 0,
        "meta_mean_motion_dot": -1.5e-07,
        "meta_mean_motion_ddot": 0,
        "tle_line1": "1 37185U 10053A   25340.03627198 -.00000015  00000+0  00000+0 0  9998",
        "tle_line2": "2 37185   0.0624 273.2338 0001790 236.3382 183.3829  1.00278634 55544"
      },
      "geometry": {
        "type": "Point",
        "coordinates": [
          -116.79591457719135,
          -0.05136087759982879
        ]
      }
    }
  ]
}